Client,Street,City,State,ZIP
B02935,Room 1105-1108 One Corporate Avenue 222 Hubin Road ,Luwan District,shan,200021
B02921,"F20, European Center, No.18 Jiaogong Road  ",Hangzhou,NON-US,
B02929,Huawei Industrial Base Bantian Longgang  ,Shenzhen,Gau,
B03433,"EDRC Commerical Buildings & Airports SBG Mount Poonamllee Road Manpakkam, P.O. Box 979 ",Chennai,Tem,600089
B03739,   ,Harbin,HL,
B03232,"Off Andheri Kurla Road, Chakala   ",Andheri (East),Mumbai,400 093
B03740,   ,Kunshan,zhe,
B07724,P.O. Box 54320   ,Jeddah,.,21514
B03886,400 E Del Cruce   ,De Llorente De Tibas,Sanjaun,11301
B03884,114 Hasan Aliyev Street   ,Baku,Baku,AZ1052
B02919,"9F Aurora Plaza, 99 Fucheng Road, Room 901   ","Pudong, Lujiazui",shan,200120
B02326,343 Elm Street   ,Winnipeg,MB,R3M 3N6
B11193,   ,Riyadh,.,
B03553,3636 Research Rd. NW   ,Calgary,AB,T2L 1Y1
B06756,144 West State Street   ,Trenton,NJ,8608
B03415,"1755, 8882 170 Street   ",Edmonton,Alberta,T5T 4J2
B03260,"1, Peninsul Spenta Mathuradas Mills Compound Senapati Bapat Marg ","Lower Parel, Mumbai 400 013",Mah,
B03376,2800 Yangshupu Rd.   ,Shanghai,shan,2000090
B03377,No. 33 East Huazhan   ,Shanghai,shan,200231
B11191,   ,Dubai,Dubai,
B11199,P.O. Box 105633   ,Riyadh,.,11656
B01827,Studio 9 10 Bowling Green Lane  ,London,LONDON,EC1R 0BQ
B03378,No. 219 Guangji South Rd.   ,Suchou,Sic,215008
B11167,1 Church Road   ,Richmond,GLONDON,TW9 2QE
B03830,109-3725 Pasqua Street   ,Regina,SK,S4S 6W8
B03791,Level 54 Tower 2 Petronas Twin Towers  ,Kuala Lumpur City,KL,
B03269,1920 Rose Street   ,Regina,SK,S4P 0A9
WRL2043,650 Woodland Road West   ,Guelph,ON,N1K 188
B03794,PO Box: 201184   ,Doha,QA,
B05938,"22nd Floor, Citigroup Tower No. 33, Huayuanshiqiao Road  ",Pudong,shan,200120
B02926,No.399 Shuxi Lu Zhonghai Int‘l Community  ,Chengdu,Sic,611731
SORG440,Bilkent Plaza A3 Blok 2/20   ,"""Bilkent, Ankara""",,
B07473,150# West Nanjing Road   ,shanghai,shan,200024
B08416,"Salam Street, Lulu Centre, 5th , 10th, 11th , 15th P.O. Box 26417  ",Abu Dhabi,AbuDahabi,
B08981,350 Legget Drive   ,Kanata,ON,K2K 2W7
B04476,P.O. Box 25106   ,Abu Dhabi,AbuDahabi,
B07441,"Emaar Business Park Building 3, Suite 302, 3rd Floor Sheikh Zayed Road ",Dubai,Dubai,
B07498,"The Courtyard, General Mathenge Drive P.O. Box 62899 - 00200 Westlands  ",Westlands,Nairobi,
B07582,"Delta Riverside Office Complex Block 4, Gnd Flr, Riverside Drive PO Box 51783-00100 ",Nairobi,Nairobi,
B07583,"26th Floor, UCS Building 209 Smit Street Braamfontein ",Johannesburg,GT,
B07457,De Entree 242 1101 EE Amsterdam  ,Amsterdam,NHolland,
B09713,PO Box 605   ,Muscat,add,115
B09724,"Duck shop, kaifu district, changsha city, hunan pr   ",changsha,HN,
WRL2267,   ,Hualien,TW,
B09837,111 Ren'ai Road Suzhou Dushu Lake Science and Education Innovation Suzhou Industrial Park ,Taicang,JS,
B09847,3rd Floor La Croisette Shopping Mall  ,Grand Baie,add,
B04508,688 Jiang Road   ,Shanghai,shan,201203
B04535,Kenyatta University Main Campus PO Box 43844-00100  ,Nairobi,.,
B04633, c/o 360 Vox 1602 - 900 W. Georgia Street ,Vancouver,BC,V6C 2W6
B04635,153 Neftchilar Avenue   ,Baku,Baku,AZ1010
B04693,63 East Cordova Street   ,Vancouver,BC,V6A 1K3
B02930,808 Hyundai Motor Tower No. 38 Xiaoyun Road  ,Chaoyang District,Beij,100027
B10903,Triad House 83 Muthaiga Road  ,Nairobi,.,
B08361,"P.O. Box 229, Mokattam 11571   ",Cairo,NewCairo,
B11178,"Fairmont Hotel, Floor No. 7th, Office No. 724 P.O. Box 172595  ",Dubai,Dubai,
B11184,"PO Box 2403-00606, 4th Floor Lion Place Karuna Close off Waiyaki Way, Westlands  ",Nairobi,.,600
B03950,2550 Hongqiao Road   ,Shanghai,shan,200335
B02920,"Wanchang Road, Taiping Block,   ",Wenling,zhe,317500
B11438,Cairo Festival City 5th Settlement business Park Building A 4th Floor ,Cairo,NewCairo,
B11439,   ,Cairo,add,
B11440,   ,Cairo,add,
B11441,   ,Cairo,add,
B11442,   ,Cairo,add,
B11443,   ,London,LONDON,
B11446,"Room 1415, Building 1, Yunfeng building, No.97 East Huanzhan Road, Jianggan District, Hangz  ",Hangzhou,zhe,
B11467,   ,Riyadh,.,
B11436,   ,Cairo,add,
B11474,"Suite 031, Alia Tower Khalifa Street PO Box 46418 ",Abu Dhabi,Dubai,
B11487,Plaza Mattel 17   ,Roma,add,186
B11488,55 St. Clair Avenue West Suite 205  ,Toronto,ON,M4V2Y7
B11489,11 Vouliagmenis Ave   ,Athens,add,11636
B11500,"HQ Building, Al Raha Beach Floor 8  ",Abu Dhabi,AbuDahabi,26866
B11461,1465 Pickering Parkway Suite 200  ,Pickering,ON,L1V 7G7
B11461,6990 Creditview Road Unit 2  ,Mississauga,ON,L5N 8R9
B11459,285 Yorkland Blvd.   ,Toronto,ON,M2J 1S5
B11518,"Al Faisaliah Tower, Floor 15 King Fahd Road P.O. Box 66582 ",Riyadh,.,
B11521,p.O. Box 9316 King Fahd Road  ,Riyadh,.,11413
B11524,Business Gate Complex Airport Road  ,Riyadh,riyadh,
B11530,P.O. Box 99   ,Al-Khobar,.,31952
B11547,Rumi Business Center - Villa No. 1 King Abdulaziz Road  ,Riyadh,.,
B11460,95 St. Clair Ave. W Suite 1500  ,Toronto,ON,M4V 1N6
B11471,P.O.Box 95619   ,Mombasa,add,8010
B11563,45 St. Clair Ave. W. Suite 300  ,Toronto,ON,M4V 1K9
B11620,   ,Riyadh,.,
B11889,P.O.Box 37886   ,Nairobi,Nairobi,100
B11893,P.O Box 98   ,Vipingo,add,80119
B11829,550 Poirier St   ,Coquitlam,BC,V3J 6A7
B12100,P.O. Box 0072   ,Nairobi,.,100
B12102,"KMA Building Block D Suite 5.3,off Mara Rd, Upperh 4649 Nannie Helen Burroughs Ave. NE Washington DC  ",Nairobi,Nairobi,0072-00100
B12103,   ,Blantyre,add,
B11179,P.O. Box 467   ,Riyadh,.,11411
B10350,PO Box 72240   ,Abu Dhabi,AbuDahabi,
B10359,"Smart Village, A4-B83 KM28 Cairo-Alexandria Desert Road Abou Rawash ",Cairo,NewCairo,
B10353,   ,London,LONDON,
B10358,"P.O.Box 52919 6th Floor Rhapta Heights, Rhapta Rd. Westlands, Nairobi Kenya ",Nairobi,Nairobi,800
B10397,PO Box 120660   ,Dubai,Dubai,
B10398,"17 Syria St. above commercial international bank, Roushdy  ",Alexandria,add,
B10404,"230 Park Avenue, 16th Floor   ",New York,YT,10169
B02203,13340 California St #100   ,Omaha,ede,68154
B04172,859 Maplecrest Avenue   ,Ottawa,ON,K2A 2Z7
B04218,"Room 8, 28th Floor 1st Unit, 2nd Building 166 New South Rd ",Chongqing,CQ,401120
B04247,1602-900 West Georgia St.   ,Vancouver,BC,V6C 2W6
B04244,5051 Sansan Highroad   ,Shanghai,shan,
B04332,7650 Birchmount Road   ,Markham,ON,L3R 6B9
B04272,"40 University Avenue, Suite 603   ",Toronto,ON,M5J 1T1
B04275,NG2 Business Park   ,Nottingham,NOTTS,NG80 1ZZ
B04377,20F Jinbao Tower 89 Jinbao Street Dongcheng District ,Beijing,Beij,100005
B04826,501 Zhangyang road   ,Shanghai,shan,
B04247,Olympic Hotel Seattle Attn: John Hendry 1603-900 West Georgia Street ,Vancouver,BC,V6C 2W6
B04792,P.O Box 25714   ,Sharjah,NON-US,122001
B04806,"Al Sila Tower, 25th Floor Sowwah Square Al Maryh Island ",Abu Dhabi,AbuDahabi,
B04812,P.O. Box 1100-20300   ,Nyahururu,.,
B04814,"P.O. Box, 972   ",Meru,.,60200
B04822,Academic Hwy   ,Eldoret,.,
B09556,Floor 33 1699 Huan Dao Road East  ,Xiamen,NON-US,
B09606,2727 The Crescent Parklands P.O. Box 54634-00200  ,Nairobi,Nairobi,
B09608,6631 Abdullah AL Matari - Al Andalus  Unite No. 2 ,Jeddah,AbuDahabi,23322-4097
B09609,   ,Abu Dhabi,AbuDahabi,
B09621,147 Saint-Paul West Suite 100  ,Montreal,QC,H2Y1Z5
B09661,One Shenzhen Bay Office Building   ,Shenzhen,shan,
B09668,"14F,No.358 West Yan'an Road   ",Shanghai,shan,
B04200,"19th Floor D Tower World Trade Center 2nd Phase No.6 Lane 227 Dong Yu road, Pudong New Area ",Shanghai,shan,
B04395,1020 - 64 Ave NE   ,Calgary,AB,T2E 7V8
B04470,Supply Management Services Materials Management Building 116 Street & 85 Avenue ,Edmonton,AB,T6G 2R3
B02379,9-11 Melville Lane   ,Port of Spain,Port_Spain,
B02326,Suite 204 162-2025 Corydon Avenue  ,Winnipeg,MB,R3M 3N6
B04200,"No. 101, E-Shan Rd. Pudong District  ",Shanghai,shan,200127
B04164,"Borgo degli Albizi, I4 50122 Florence  ",Florence,Tuscany,
B04164,Calle G Edificio Emily APT 7B ,Panama City,-,
B01871,"Parque Empresarial Forum 2, Bldg F, 4th FL   ",Santa Ana,sanjose,11111
B04302,"No. 688, Jiyang Rd. Pudong District  ",Shanghai,shan,200126
B09978,"Airport international business center East section of yingbin avenue airport new city, xixian new district ",xixian,SX,712034
B10363,PO Box 10223   ,Dubai,Dubai,
B12094,"Symbion House, 2nd Floor, Africa Reit Lane,Karen   ",Nairobi,Nairobi,502
B12252,P.O. BOX 2443-00606   ,Nairobi,Nairobi,
B08550,"5th floor, Shanghai shipping research building No.628 Minsheng Road  ",shanghai,NON-US,200135
B09919,One Kingsway NW   ,Edmonton,AB,T5H-4G9
B08150,"Room 805, Floor 8, Building 1, No 385 TianHe Road,  ",Guangzhou,GZ,
B04449,"28, Hua Chen Financial Mansion, No. 900 Pudong Avenue  ",Pudong,shan,200135
B08220,"P.O. Box 10 - 10406, Timau Kenya along Nanyuki-Meru / Isiolo Road  ",Nairobi,Nairobi,
B08274,"Climate Innovation Center, Strathmore Business Sch Ole Sangale Road, Madaraka P.O. Box 63892-00619 ",Nairobi,Nairobi,
B08270,"Head Office, 2nd Floor - Nyaku House   ",Hurlingham,Nairobi,
B08272,P.O. Box 25679 - 00603   ,Nairobi,Nairobi,
B08273,P.O. Box 1322-80100   ,Mombasa,add,
BMG054,1280 Main Street West   ,Hamilton,Ontario,L8S4L8
B04730,PO Box 30197-00100   ,Nairobi,.,
B04738,OFC Complex Al Ahsa Road PO Box 8772 ,Riyadh,.,11492
B04724,P.O. Private Bag Kasarani  ,Nairobi,.,
B04770,"595 Burrard Street, 5th Floor   ",Vancouver,BC,V7X 1L4
B04810,P.O. Box 210-40601   ,Bondo,.,
B04815,P.O. Box 49   ,Machakos,.,90100
B04756,c/o 3rd Floor - 563 Superior Street   ,Victoria,BC,V8V 1T7
B04816,P.O. Box 53067-00200   ,Nairobi,.,200
B04882,"Malindi Highway, Malindi Road   ",Kilifi,.,
B04895,P.O. Box 861 - 20500   ,Narok,.,
B04742,   ,Xi'an,SX,
B04752,Suite 300 - 10830 Jasper Ave   ,Edmonton,AB,T5J 2B3
B04881,"Tom Mboya Street, P.O. Box 90420 - 80100 G.P.O Tudor Area  ",Mombasa,.,
B04896,P.O. BOX 170-90200   ,Kitu Nairobi 254,.,
B04899,Room 509 Kerry Centre North Tower No1 Guanghua Road  ,Chaoyang District,Beij,100020
B04845,"P.O. Box 62,000 00200 NAIROBI  ",Nairobi,.,
B04825,Private Bag   ,Maseno,.,
B04846,P.O Box 657 10100  ,Nyeri,.,
B04878,P. O. Box 408-40200   ,Kisii,.,
B08363,’Muscat National Development and  Investment Co. Muscat  ,Muscat,add,
B04844,P.O Box 536   ,Egerton,.,20115
B08271,"Vedic House, 3rd Floor, Room 315 Mama Ngina St. P.O. Box 6101-00100, GPO ",Nairobi,Nairobi,
B08317,"P.O. Box 10730, 00100 - GPO   ",Nairobi,Nairobi,
B08211,Rue Caroline 17c   ,Les Acacias,.,1227
B08228,P.O. Box 47633 – 00100   ,Nairobi,Nairobi,
B08870,PO Box 10518   ,Nairobi,Nairobi,100
B08887,"2nd floor, The Prosperity House P.O. Box 2738  ",Kisumu,Nairobi,40100
B08909,   ,Jeddah,jedd,
B08270,"Maisonette No. 2, Woodland Trails, Woodlands Road.  P. O. BOX 17095 ",Nairobi,Nairobi,100
B08931,"1-1, 1 Shinsuna, Koto-ku   ",Tokyo,JP,
B12027,100 Battery Point Road   ,Lunenburg,NS,BOJ 2CO
B12030,   ,Shanghai,shan,
B12308,P.O. Box 21389   ,Nairobi,Nairobi,505
B12427,"Urban and Architectural Design Office, Planning Building, 8009 Hongli West Road, Futian District ",ShengZhen,NON-US,
B04951,Rotana Hotel Management Corporation PJSC PO. Box 95100  ,Dubai,Dubai,
B04953,   ,Dubai,Dubai,
B04955,"777 Bay Street, 9th Floor   ",Toronto,ON,M5G 2L5
B04915,4016 1st Ave   ,Burnaby,BC,V5C 3W4
B04952,"PO Box 35566 Head Office Khalifa City A, Abu Dhabi  ",Abu Dhabi,AbuDahabi,
B05070,"18th Floor Ping An Finance Center 1333# Lujiazui Ring Road, Pudong  ",Shanghai,shan,
B05079,P O Box 30118   ,Nairobi,.,100
B05120,No.1 Bao Yang Rd. Baoshan District   ,Shanghai,shan,201900
B05126,   ,Monterrey,NL,64320
B04948,   ,Jeddah,.,
B04954,   ,Dubai,Dubai,
B05146,"PO Box 400-00502 Wilson Airport Building No 37, Langata road  ",Nairobi,.,
B05157,3751 Victoria Park Avenue   ,Toronto,ON,M1W 3Z4
B05161,"SW.B4 Ojijo Plaza, Ojijo Road   ",Parklands,.,
B05164,P.O. Box 66776-00800   ,Nairobi,.,
B05182,"Crawford Business Park, State House Road Block C, First Floor, Suite 10 P. O. BOX 18724-00500 ",Nairobi,Kenya,
B05121,"Peponi Plaza,  3rd floor block E PO Box 74493, City Square 00200,  ",Nairobi,.,
B05150,"12th Floor, IPS Building Kimathi Street  ",Nairobi,.,
B05108,Stima Plaza Ground Floor Kolobot Road P.O. Box 1548-00600 ,Nairobi,.,
B05138,"6th flloor, Wing A Westend Towers Waiyaki Way, Westlands ",Nairobi,.,
B05140,"PO Box 22759-00400 Chase Bank Wing - Riverside Mews Ring Road, Riverside Drive ",Nairobi,.,
B05144,"Deloitte Place Waiyaki Way, Muthangari PO Box 40092 - GPO 00100 ",Nairobi,.,
B05145,P.O. Box 2000-00621 Village Market  ,Nairobi,Nairobi,
B05080,P.O.Box: 41973   ,Nairobi,.,100
B05083,   ,Abu Dhabi,AbuDahabi,
B05147,"Planning House, Lower Kabete Road PO Box 188, Sarit Centre 00606  ",Nairobi,.,
B05148,"Karen Office Branch, Langata Road PO Box44599-00100  ",Nairobi,.,
B05165,Department of Justice Padre Faura Street  ,Manilla,.,1000
B05129,P.O. Box 45587-00100   ,Nairobi,.,
B05155,"PO Box 510-00100 2nd Floor - Block A Red Commercial Complex, Mombasa Road ",Nairobi,.,
B05168,   ,Dubai,Dubai,
B05133,No.1 Bao Yang Rd. Baoshan District   ,Shanghai,shan,201900
B04955,"777 Bay Street, 6th Floor   ",Toronto,ON,M5G 2C8
B05092,9 West Building 9th Floor Ring Road Westlands ,Nairobi,Nairobi,
B05172,"Building 1,27 Xin Jinqiao Road, Pudong   ",Shanghai,shan,201206
B05208,   ,Georgetown,add,
B05265,Blvd. Magnocentro NO. 26 5 PISO  ,Huixquilucan,CP,52760
B05266,Attn: Arq. Christian Gonzalez Diaz Av. Constituyentes No. 1150  ,Del Miguel Hidalgo,DF,11950
B05109,P.O. Box 802030300   ,Kapsabet,.,
B05110,P.O. Box Private Bag 50400   ,Busia,.,
B05128,"2nd Floor, Acorn House 97 James Gichuru Road P.O. Box 13759-00100 ",Naibori,.,
B05139,"Dalgliesh House, Church Road/Rhapta Road, Westland PO Box 42878  ",Nairobi,.,
B05150,"12th Floor, IPS Building Kimathi Street  ",Nairobi,.,
B05364,PO BOX 154 1400 AD BUSSUM  ,Busom,NHolland,
B05363,"1111 West Georgia Street, Suite 2320   ",Vancouver,BC,V6E 4M3
B05582,"2nd Floor West Tower Nelson Mandela Square Maude Street, Sandton, 2196, Gauteng ",Johannesburg,GT,
B05333,"Sumou Tower, King Abdul-Aziz Road 4th Floor#406 P.O Box 55461  ",Jeddah,.,21534
B05477,"Plot 1469 Ggaba Road, Nsambya P.O. Box 33145  ",Kampala,NON-US,
SORG103,"5th Floor, Orchid Centre Sector-53, Golf Course Road  ",Gurgaon,Haryana,122002
SORG112,Bilkent Plaza A-3 Blok No: 20 Bilkent   ,Ankara,add,
SORG125,Financial Management Officer Shanti Path Chankyapuri  ,New Delhi,add,
SORG148,"5th Floor, Orchid Centre Sector-53, Golf Course Road  ",Gurgaon,Haryana,122002
SORG157,Hatir Sokak No:20 GOP   ,Ankara,add,6700
B05466,"No 1088,xueyuan Rd., Xili, Nanshan District Shenzhen,Guangdong,China ",Shenzhen,add,518055
B09286,Giessenerstrasse 30 60435 Frankfurt am Main  ,Frankfurt,.,
B09293,   ,Dubai,Dubai,
B09304,Floor 12 Shimen Two Road  ,Shanghai,shan,
B09315,8 Miotoni Lane P.O. Box 24916-00502  ,Karen,Nairobi,
B09472,Av. paseo de los Tamarindos 90 Torre 1 Piso 12 Arcos Bosques  ,Mexico,DF,5120
B09350,   ,nairobi,Nairobi,
B05966,P.O. Box 44400-00100   ,Nairobi,.,
B05967,P.O. Box 2224   ,Kisumu,.,40100
B05969,P.O. Box 4524000100   ,Nairobi,.,
B05970,P.O. Box 56875-00200   ,Nairobi,.,
B05971,"P.O. Private Bag, Limuru-00217   ",Limuru,.,
B05972,"Ole Sangale Road P.O. Box 59857, 00200 City Square  ",Nairobi,Nairobi,
B05974,"Town Campus, Moi Ave. P.O. Box 387-00902 Kikuyu, Kenya  ",Nairobi,.,
B05963,P.O. Box 2500         30100 Eldoret   ,Eldoret,.,
B05968,20 kms north of Nakuru Town Along Nakuru-Eldama Ravine Highway  ,Nakuru,.,
B05973,P.O BOX 123-20200   ,Kericho,.,
B06047,Carrasco Business Center Costa Rica 1538  ,Montevideo,.,
B06247,P.O. Box 14634 - 0800   ,Nairobi City,Nairobi,
B06263,26 Floor One by Omniyat Business Bay  ,Dubai,Dubai,800 666
B06273,"P.O. Box 500200 Dubai Internet City, Building 15, Office 101  ",Dubai,AbuDahabi,
B06277,245 Chuntiao Road   ,Shanghai,shan,
B06308,"The Courtyard, 2nd Floor General Mathenge Drive P.O. Box 62899-00200 ",Westlands,Nairobi,
B06257,PO  Box 49776   ,Dubai,Dubai,
B04980,"5th Floor Suite A Arlington House 14 Riverside, Riverside Drive ",Westlands,Nairobi,
B06275,"GBS Building, 4th Floor, Al Madaar Street PO Box 500659, Dubai Media City  ",Dubai,Dubai,
B06287,P.O.Box 83499   ,Sharjah,Sharjah,
B06310,"MMC Arches, Spring Valley Crescent off Peponi Road ",Westlands,Nairobi,
B06356,PO Box 1014   ,Addis Ababa,.,
B06314,P.O. Box 995   ,Dubai,Sharjah,
B06274,"Sheikh Zayed Road, Al Barsha 1, API Trio Tower 8th Floor, Office 801 PO Box 111679 ",Dubai,Dubai,
B06276,Al Habtoor Group LLC P.O.Box : 25444  ,Dubai,Dubai,
B06303,"Loita House, 11th Floor P.O. Box 61562-00200  ",Nairobi,Nairobi,
SORG253,"20 Maud Street #200  ",Toronto,ON,M5V-2M5
B06306,"Methodist Ministries Center, Block B 3rd Floor, Oloitoktok Road P.O. Box 53343-00200 ",Lavington,Nairobi,
B06591,"Luther Plaza, Nyerere Rd/Uhuru Highway PO Box 1980-00502  ",Karen,Nairobi,
B06363,"Dammam Hotels Company PO Box 5397, Dammam 31422 Kingdom of Saudi Arabia ",Dammam,.,
B09452,"P.O. Box 4211-30200, Kitale   ",Kitale,add,
B12475,Av. Washington #3701 Edif 17 Parque Industrial Las Americas  ,Chihuahua,EM,31114
B12526,   ,Riyadh,riyadh,
B12527,   ,Jeddah,jedd,
B12529,   ,Cairo,NewCairo,
B12530,"700, 404 6 Avenue Southwest   ",Calgary,AB,T2P OR9
B12598,   ,Wuxi,NON-US,
B12609,P.O. Box 359   ,Riyadh 11411,riyadh,
B12611,"Saudi Arabia Kingdom-Riyadh, Eastern Ring Road exi  ",Riyadh,riyadh,11437
B12612,P.O. Box 260020   ,Riyadh,riyadh,
B12592,   ,Riyadh,riyadh,
B12621,"Al Aqariya Office Complex, Tower No. 1 Fifth Floor, Al Malaz, Salahuddin Al Ayoubi Street Post Box No.1321 ",Riyadh,riyadh,11431
B12622,"King Abdullah II Ring Road No. 2997 P.O Box 5035 Madinah, KSA ",Madinah,.,
B12634,Madinah Province   ,Al Ula,.,
B12637,"P.O.Box 92104 Prince Turki Alawal Road, Boulevard Mall ",Riyadh,riyadh,11653
B12640,"Tuwaiq Palace, 2664 Alhattan Street, Al Safarat  ",Riyadh,riyadh,12513
B12645,"Al Hamra District, Aws Al Ansari Street Makkah Province ",Makkah,.,
B12574,1004 Middlegate Rd Suite 1000   ,Mississauga,ON,
B12589,430 – 8th Avenue SE   ,Calgary,AB,T2G 0L7
B12610,Amir Majed Street Al Safa District PO Box 3327 ,Jeddah,jedd,21471
B12647,P.O Box 6086   ,Riyadh,riyadh,11442
B12649,The Third Ring Road Al-Shawqiyya Neighborhood 2699  ,Makkah,.,24351
B12662,"3889, Al Nakheel, Raidah Digital City Building MU04, Floor 10 Al Nakheel, ",Riyadh,riyadh,12382-6744
B08661,Gems Education Building Sheikh Zayed Road  ,Dubai,Dubai,8607
B06530,Transfarpolis Hongda Rd Xianshao Hangzhou  ,xiaoshan,zhe,311231
B08744,"No 948,DongDaMing Rd.Hongkou District   ",Shanghai,shan,
B06633,"Skypark Plaza, Woodvale Close   ","Westlands, Nairobi",Nairobi,
B06652,PO BOX 46201 Abu Dhabi  ,Abu Dhabi,AbuDahabi,
B06790,P.O. Box 624-00621   ,Nairobi,Nairobi,
B12566,   ,Makkah,.,
B12655,Tolip Elnarges Fifth district  ,Cairo,NewCairo,
B12686,King Fahad Road Al Khalidiyah Ash Shamaliyah Eastern Region ,Dammam,.,32232
B12687,"King Saud Bin Abdulaziz Road Sipchem Tower, Shomoul P.O.Box 38, ",Khobar,.,31952
B12690,"Tatweer Project Building, Level 4 Khurais Road P.O.Box 5117, ",Riyadh,riyadh,11422
B12723,"Sharjah Media City (Shams), Al Messaned, Al Bataeh, ",Sharjah,Sharjah,515000
B12724,"Sharjah Investment and Development Authority (Shurooq) P.O. Box 867, Sharjah ",Sharjah,Sharjah,867
B12601,AlRaidah Digital City Al-Nakheel P.O.BOX 6847  ,Riyadh,riyadh,6847
B12638,"King Abdullah Road District Sulymaniyah, PO BOX 213 ",Jeddah,jedd,21411
B12644,"Riyadh, Central Province P.O Box: 8592  ",Riyadh,riyadh,12333
B12685,PO Box 5101   ,Riyadh,riyadh,11422
B12699,"1st Floor, CI Tower Al Bateen Street  ",Abu Dhabi,AbuDahabi,32932
B12714,"The Pinnacle Building Suite 401 03, Sheikh Zayed Road PO Box 283850 ",Dubai,Dubai,83850
B12715,HQ Building Abu Dhabi P.O.Box 147774  ,Abu Dhabi,AbuDahabi,147774
B12716,"Ministry of Presidential Affairs Abu Dhabi,  United Arab Emirates  ",Abu Dhabi,AbuDahabi,
B12734,   ,Toronto,ON,L4E2R2
B01876,Haihang Development Building No.29 Haixiu Road  ,Haikou,HI,570206
B01944,RR1 Box 10000  ,Kingshill,add,00850-9781
B08029,"Orchid Developers & Contractors P.O. Box 24252, King of Bahrain  ",Bahrain,add,
B08030,"PO Box 3936, Riyadh 11481   ",Riyadh,.,
B08097,555 Xinyuan Rd S. Pudong New District ,Shanghai,shan,
B12602,   ,Riyadh,riyadh,
B12635,"P.O. Box 3386, Northern Ring Road  ",Riyadh,riyadh,12461
B12642,   ,Riyadh,riyadh,
B12656,"Building 290, Second Business District off 90th Road  ",Cairo,NewCairo,
B12657,"11 Cleopatra Street, El Korba Heliopolis  ",Cairo,NewCairo,
B12682,   ,Riyadh,riyadh,
B12692,Exit 2 – Prince Turki Ibn Abdelaziz Al Awwal Rd Hitteen District  ,Riyadh,riyadh,
B12705,"P.O. Box 5995, Sharjah, United Arab Emirates   ",Sharjah,Sharjah,5995
B12706,"Sheikh Rashid Bin Saeed St. Rd 18th, Bloom Central   ",Abu Dhabi,AbuDahabi,
B12708,Almas Tower Jumeirah Lakes Towers PO Box 48800 ,Dubai,Dubai,4880
B12712,"Jubail Island Investment Company Jubail Island, Abu Dhabi  ",Abu Dhabi,AbuDahabi,
B12719,"Meraas Holding HQ, Al Satwa   ",Dubai,Dubai,
B12729,"Burj Alshaya Al Soor Street Al Mirqab, Kuwait ",Kuwait,add,181
B12633,"Al Nuzhah - King Abdullah Road P.O. Box 14022, Riyadh  ",Riyadh,riyadh,11424
B12648,Eastern Province   ,Buqayq,.,
B12658,"S Teseen, First New Cairo   ",Cairo,NewCairo,
B12665,8522 King Fahad Bin Abdul Aziz Road   ,Riyadh,riyadh,11564 4228
B12679,"Alturki Tower, 2nd Floor, Khobar Eastern Province ",Khobar,.,
B12680,P.O. Box 30031 Yanbu Industrial City  ,Yanbu,.,41912
B12683,"King Abdullah Branch Rd, Sayed As Shuhada  ",Madinah,.,42321
B12684,West Park 1   ,Dhahran,.,31311
B12688,Next to General Organization for Social Insurance King Abdullah Road  ,Madinah,.,41472
B12696,"6818, Riyadh 11   ",Riyadh,riyadh,
B12701,Abu Dhabi National Oil Company P.O. Box : 898 Abu Dhabi  ,Abu Dhabi,AbuDahabi,898
B12702,P.O. Box 128484   ,Abu Dhabi,AbuDahabi,128484
B12703,"31st floor, Al Hind Tower, Al Khan PO Box 998  ",Sharjah,Sharjah,998
B12704,"Arada Head Office Festival Tower, 19th Floor Dubai Festival City ",Dubai,Dubai,
B12707,"P.O. Box : 73000, Dubai, UAE   ",Dubai,AlAin,73000
B12709,Sheikh Zayed Road Dubai World Trade Center  ,Dubai,Dubai,
B12710,"Port Road, FNG Building Fujairah, Fujairah  ",Fujairah,Fujairah,121
B12721,Julphar Towers Floor #41 P.O. Box 31113 ,Ras Al Khaimah,NA,31113
B12659,"3 El-Mansour Mohammed Abu Al Feda, Zamalek  ",Cairo,NewCairo,11211
B12660,42 Michael Bakhoum-Beside Shooting Club Dokki   ,Giza,NewCairo,
B12663,29 El Falah Street Mohandseen  ,Giza,NewCairo,11211
B12698,P.O.Box: 4048   ,Abu Dhabi,AbuDahabi,4048
B12700,"Abu Dhabi Ports, Headquarters Gate 1, next to Zayed Port, Al Mina Street  ",Abu Dhabi,AbuDahabi,54477
B12717,"26, Al Khor Street Al Maqta  ",Abu Dhabi,AbuDahabi,33700
B12636,"2663, Al Imam Saud, Ibn Abdul Aziz Road Al - Muhammadiyah P.O Box 9102, ",Riyadh,riyadh,12364
B12643,"Exit 9, Ash Shuhada District Eastern Ring Branch Rd  ",Riyadh,riyadh,13216
B12661,"7605 Abdullah Alsahmi St Al Safarat, P.O. Box 67167 ",Riyadh,riyadh,11596
B12664,Al Hamadaniyah District   ,Jeddah,jedd,23761 2623
B12813,200 - 1550 5th Street Southwest   ,Calgary,AB,T2R1K3
B12807,Thakher Investment and Real Estate Development Co. Al Rawdah Dist. Prince Mohammed Bin Abdulaziz Rd Ali Bakatir Street ,Jeddah,jedd,
B13582,"No.130 Dongan Rd,Xuhui District   ",Shanghai,shan,
B13427,NO.180 Middle Zhenghe Rd.Taicang City Jiangsu Province P.C.  ,Taicang,JS,
B13592,205 8th Avenue S.E.   ,Calgary,AB,T2G 0K9
B13525,"425 rue, Champlain St   ",Dieppe,NB,E1A 1P2
B13544,No.18 Anji Road   ,Hangzhou,zhe,
B13636,   ,Glasgow,GLOS,
B13622,CI Tower - 32nd St - Al BateenW10   ,Abu Dhabi,AbuDahabi,
B13623,Tariq Al Qassim Street PO Box 163  ,Hail,.,
B01905,Mercury Court Choc Estate  ,Castries,add,
B06845,"Dale House, Rhapta Road Westlands PO Box 69641-00400 ",Nairobi,Nairobi,
B06846,The Professional Centre Parliament Road PO Box 44258-00100 ,Nairobi,Nairobi,
B06848,"Aeroprint Consult Ltd. SS Plaza, Room E09 Nasser Rd ",Kampala,NON-US,
B06653,"P.O. Box 123311, Dubai, UAE   ",Dubai,Dubai,
B07440,"1, Katta Hirmontepa str.,   ",Uchtepa district,Tashkent,100021
B05475,PO Box 33-00241   ,Kitengela,.,
B05476,"Provident House 3rd Floor, Cairo Road PO Box 34625 ",Lusaka,.,
B10572,1100-111 Dunsmuir Street   ,Vancouver,BC,V6B6A3
B05960,"P.O.Box 2030, 20200   ",Kericho,.,
B05964,"Advent Hill, Ongata Rongai, Magadi Road   ",Nairobi,.,
B05965,"P.O. Box 24686, 00502   ",Nairobi,.,
B13694,Al Mutasim St 130   ,Amman,add,
B13695,"Port Building, No. 358 East Daming Road   ",Shanghai,shan,
B03708,Monterrey - Nuevo Laredo Km. 16.5 Parque Industrial Interpuerto  ,Salinas Victoria,NL,66616
B12813,10225 100 Avenue   ,Edmonton,AB,T5J0A1
B11341,81 Bay Street Suite 3500  ,Toronto,ON,M5J 0E7
B13755,   ,Dubai,Dubai,
B04163,"Avenida 10, calle 23 bis. NR 1005 Barrio Gonzalez Lahmann  ",San Jose,sanjose,7393-1000
B04164,P.O Box 582-1250   ,San Jose,sanjose,
B04165,   ,Tres Rios,Cartago,
B04059,"Paseo de la Reforma 489, piso 6   ",Colonia Cuauhtemoc,DF,6500
B06309,"Jimkan House, Upper 3rd Floor 37 Woodvale Grove Road P.O. Box 57, 00623 ",Westlands,Nairobi,
B06300,4th Floor PWC Towers Waiyaki Way  ,Westlands,Nairobi,
B06337,PO Box 12944   ,Jeddah,.,21483
B06359,TK Building 2 #411 Bole Road/Africa Ave  ,Addis Ababa,.,
SORG201,"40/2971, Beadon Pura, Karol Bagh   ",New Delhi,,
B07316,"Swiss Confederation Federal Department of Finance Fellerstrasse 21, CH-3003 Bern Switzerland ",Berne,,
B07343,"P.O. Box 3572, Riyadh 11481 Kingdom of Saudi Arabia  ",Riyadh,riyadh,
B07374,"5th Floor, International House Mama Ngina Street P.O. Box 10518-00100  ",Nairobi,Nairobi,
B05060,"Mivida, Emaar Head office Uptown Cairo  ",Cairo,add,
B05160,PO Box 48400-00100   ,Nairobi,.,
B05167,   ,Lusail,Doha,
B07671,P.O. Box 52323 00200   ,Nairobi,Nairobi,
B06304,Head Office / Britam Centre Mara/Ragati Road Junction P.O. Box 30375-00100 ,Upperhill,Nairobi,
B02222,#402 Estate Anna's Retreat   ,St. Thomas,stThomas,
B04880,P.O. Box 52428 - 00200   ,Nairobi,.,
B03851,PO Box 10138-1000   ,San Jose,sanjose,
B03872,813-814 International Trade Tower Nehru Place  ,New Delhi,Del,110019
WRL2043,650 Woodlawn Road West   ,Guelph,ON,N1K 1B8
B12201,"Eden Square, Block 1, 6th Floor, Westalnds Road   ",Nairobi,Kenya,100
B12480,1660-999 West Hastings Street   ,Vancouver,NT,V6C 2w2
B12203,Lázaro Cárdenas #981 Jardines del Lago  ,"Mexicali, C.P",MX,21216
B01075,Sinaloa # 147-1   ,Col. Roma,CP,6700
B3826,16 West 4th Ave   ,Vancouver,BC,BCV5Y 1G3
B11194,P.O. Box 11515   ,Jeddah,jedd,21463
B11196,   ,Riyadh,.,
B13704,"6775 Financial Drive, Ste 102   ",Mississaugua,ON,L5N 0A4
B08417,P.).Box 31749 Ngara  ,Nairobi,Nairobi,600
B08419,"#301, 3rd Floor Daykio Plaza Ngong Lane, off Ngong Rd. ",Nairobi,Nairobi,100
B08418,Muthithi Rd.   ,Nairobi,Nairobi,200
B08435,   ,Shanghai,shan,
B08474,"29 Vazha Pshavela Ave Vaja Avenue Georgia, Tbilisi, 0160, Vaja Avenue. # 29 ",T'bilisi,.,160
B08481,"153, Neftchilar ave., Port Baku Towers, 7th floor  ",Baku,Baku,
B08539,   ,Nairobi,Nairobi,
B01322,"NO. 68, yongsheng road   ",Dongying,Sha,
B04732,PO box 190-50100   ,Kakamega,.,
B04817,P.O. Box 62157   ,Nairobi,.,200
B04818,P.O. Box 1957   ,Karatina,.,10101
B04835,PO Box 8700 Prince Philip Drive Confederation Building ,St John's,NF,A1B 4J6
B05311,Emaar Square Building Office 403 PO Box 214029 ,Dubai,Dubai,
B04813,"Room 4-7 Engineering Building 2, Main Campus  ",Pretoria 0003,Pretoria,
B02933,"Shangjingyuan 16 Hongkanlingshijun,Shuanggang  ",Jinnan District,tia,300350
B11195,P.O. Box 32200   ,Jeddah,jedd,21428
B11198,P.O. Box 6847   ,Riyadh,.,11452
B06628,Ground Floor Acorn House 97 James Gichuru Road P.O. Box 53927-00200 ,Nairobi,Nairobi,200
B05958,P.O Box 342-01000   ,Thika,.,
B05959,P.O BOX 15653- 00503   ,Nairobi,.,
B07931,P.O Box 143 – 10300   ,Kerugoya,Nairobi,
B08008,17 Short Street   ,London,LONDON,SE1 8LJ
B07981,P.O. Box 5620   ,Dubai,Dubai,
B07980,"354 Davenport Road, Suite 200   ",Toronto,ON,M5R 1K6
B05928,   ,ChongLi,HE,
B04890,27F/B Pioneering Square No. 48 Keji Road  ,Xi'an,SN,710075
B04894,P. O Box 1125 - 30100   ,Eldoret,.,
B06034,3 St. John's Court   ,Chelmsford,ESSEX,CM2 OJD
B06260,"Building 3, Level 1 Emaar Square P.O. Box 9440 ",Dubai,Dubai,
B06261,P.O. Box 12688   ,Abu Dhabi,AbuDahabi,
B06262,P.O. Box 2535   ,Abu Dhabi,AbuDahabi,
B06265,Al Sufouh Road PO Box 73137  ,Dubai,Dubai,
B06266,7 floor Vision Tower Business Bay  ,Dubai,Dubai,500272
B06267,Level 49 Emirates Towers Dubai  ,Dubai,Dubai,
B06268,"Level 14, The Gate P.O. Box 74777  ",Dubai,Dubai,
B04733,   ,Shanghai,shan,
B04874,"Regina, Saskatchewan S4S 0A2  ",Regina,SK,
B04879,"P.O. Box, 109 - 60400   ",Chuka,.,
B05464,"Suite 3A, Building 11 Shenzhen Software Park Phase II Kejizhonger Road, Nanshan District ",Shenzhen,NON-US,518057
B05465,19F Jiangtian Building No3456 South Pudong Road  ,Shanghai,shan,200125
B05475,Thika Road   ,Nairobi,Nairobi,
B05476,4302 Washama Road   ,Lusaka,.,
SORG641,Ground Floor Hilal-e-Ahmer House Main Clifton Road  ,"""Near 3 Swords, Karachi""",,
SORG751,"1117-112-, 11th floor, Tower B, DLF Towers Jasola District Center  ",New Delhi,,0
SORG786,"401 Krystal Bldg ""206 Waterfield Road, Bandra (W)""  ",Mumbai 400 050,,
SORG880,"24, Kasturba Gandhi Marg   ",New Delhi,,110 001
SORG943,"SIM Sögütözü Business Center Sögütözü Cad. No: 14/A 06560  ",Bestepler/ Ankara,,
B06597,"6th Floor, I Cybercity Ebene, Mauritius  ",Ebene,add,
WRL0127,Shao Luoling 20F Golden Bell Plaza No. 98 Huai Hai Rd ,Shanghai,,200021
B10662,   ,Nairobi,Nairobi,
WRL0059,Attn: Paul Lawrence Augustenstrasse 54  ,Munich,.,80333
SORG705,"F-223, New Rajinder Nagar   ",New Delhi,,110060
WRL2760,"Parker Hannifin Europ Sarl Attn: Damien MEGEVAND, Controller Swiss Sales Sales Company Switzerland La Tuilier 6",CH-1163 ETOY,,
B06258,P.O. Box 28928   ,Abu Dhabi,AbuDahabi,
B07018,"1400, 607 Eighth SW   ",Calgary,AB,T2P0A7
B07390,3rd Floor Liaison Hse State House Avenue  ,Nairobi,Nairobi,
B07206,404-602 West Hastings Street   ,Vancouver,BC,V6B 1P2
B07161,"1661 Scotia 2, Scotia Place 10060 Jasper Avenue  ",Edmonton,AB,t5j 3r8
B06965,"Bay Wellington Tower, Brookfield Place 181 Bay Street, Suite 3400  ",Toronto,ON,M5J2T3
B06269,"Shatha Tower, 39 Floor P.O.Box 500590  ",Dubai,Dubai,
B08361,"Emaar Square Building 3, 1st Floor P.O. Box 9440 ",Dubai,Dubai,
B08393,"Suite A37, Upperhill Gardens, 3rd Ngong Avenue P. O. Box 00562  ",Nairobi,Nairobi,100
WRL1002,"Fountain House 130 Fenchurch Street, 12th floor  ",London,LONDON,EC3M 5DJ
WRL1098,76 Carlton Street  Suite 1103   ,Toronto,ON,M5B 2J7
WRL1400,3190 Harvester Rd.   Suite 202   ,Burlington,ON,L7N 3T1
WRL1493,1300 Yonge Street  Suite 400   ,Toronto,ON,M4T1X3
WRL2005,2610 Pillette Road   ,Windsor,ON,N8T 1R1
WRL2043,600 Southgate Drive   ,Guelep,ON,N1G 4P6
WRL2469,197 Spadina Avenue  Suite600   ,Toronto,ON,M5T2C8
SORG153,General Giessenerstrasse 30 60435 Frankfurt am Main  ,Frankfurt,add,
B07836,   ,Hong Kong,Kowloon,
B07666,"Office 1309, Al Fattan Currency House Tower II Dubai International Financial Centre PO BOX 506885 ",Dubai,Dubai,
B07667,First Floor Century Plaza Jumeirah Road PO BOX 76691  ,Dubai,Dubai,
B07693,P.O.Box 5102 Jeddah 21543   ,Jeddah,.,
B07665,Islamabad Lahore   ,Islamabad,add,
B07704,"14F Mei Li Yuan Mansion,358 Yan An Road(W)   ",shanghai,shan,200040
B08538,P.O.Box: 48200- 00100 Nairobi GPO   ,Ruaraka,Nairobi,
B08999,"Room 311 , No 95, East Jiefang Road  ",JiNan,NON-US,
B09029,57 Wireless Road   ,Bankok,add,
B09069,63 Shipchenski prohod Blvd 1574  ,Sofia,add,
B09179,PO Box 24649   ,Dubai,Dubai,
B09266,1100 av.des Canadiens-de-Montreal Bureau 130  ,Montreal,QC,H3B 2S2
B09313,P.O Box 4150-00100   ,Nairobi,Nairobi,
B09412,Paseo de la Reforma 2620 Piso 16 Lomas Atlas  ,Ciudad de Mexico,MX,11950
B04508,245 ChunTiao Road   ,Shanghai,shan,
B09097,"Gold & Diamond Park Building 4, Unit 130 Sheikh Zayed Road PO Box 38349 ",Dubai,Dubai,
B13201,3500 Est. Richmond   ,Christiansted,stCroix,
B10241,Hillpark Offices Hillpark Hotel Upperhill ,Nairobi,Nairobi,
B10284,"First Floor, Office #12 Panari Sky Center Mombasa Rd. ",Nairobi,Nairobi,100
B13143,"Level 7, TNR Tower 180 Nguyen Cong Tru District 1  ",Ho Chi Minh,add,
B10320,P.O. Box 43033   ,Madinah,jedd,41561
SI_182435,333 boul. Decrie 5th Floor  ,St-Laurent,QC,H4N 3M9
B11701,   ,Riyadh,.,
B11892,P.O. BOX 61600   ,Nairobi,Nairobi,200
B09961,   ,Vancouver,NON-US,
B09902,5325 Kincaid Street   ,Burnaby,BC,V5G 1W2
B12867,6869 Metropolitain Est.   ,Montreal,QC,H1P 1X8
B12954,"Beirut Central District, Abdel Razzak Building, Second Floor, P.O.Box: 11-3542 ",Beirut,add,
B09055,   ,Baku,Baku,
B09056,   ,Moscow,add,
B09057,   ,Moscow,add,
B09058,   ,Abu Dhabi,AbuDahabi,
B09064,   ,Moscow,add,
B09114,44 Upjohn Road   ,Toronto,ON,M3B 2W1
B09076,PO Box 2660-30100 Oloo Street  ,Eldoret,Nairobi,
B09376,"4th Floor, Waumini House, Eastern Wing P.O Box 13475 – 00800  ",Nairobi,Nairobi,
B09473,Paseo de las palmas 920 Lomas de Chapultepec  ,Mexico City,CP,11000
B09723,Police Headquarters 2120 Cambie St  ,Vancouver,BC,V5Z 4N6
B08815,P.O. Box 39512-00623   ,Nairobi,.,
B08960,No. 981 Sang Yuan Road   ,Suzhou,NON-US,
B08803,P.O Box 51133   ,Abu Dhabi,AbuDahabi,
B09986,"No.258 Shimen Road(No.2), 200041,Shanghai,P.R.C   ",shanghai,shan,
B09994,499 Washington Blvd. Suite 1500  ,Jersey City,JS,7310
B13563,   ,Cairo,NewCairo,
B09277,200-4706 48th Avenue   ,Red Deer,AB,T4N 6J4
B09507,King Street   ,Toronto,ON,
B06978,"Suite 900, 926 5th Avenue SW   ",Calgary,AB,AB T2P 0N7
B13363,51-54 Pearse Street   ,Dublin,add,D02 KA66
B09758,P.O. Box 70 Muguku Farm  ,Kikuyu,add,902
B10635,"Unit 375, Parcel 17, Porto Arabia, The Pearl Qatar   ",Doha,QA,
B09723,Police Administration 3585 Graveley St  ,Vancouver,BC,V5K 5J5
B10661,51 Lenana Road-Kilimani Suite A4 Lenana Road ,Nairobi,Nairobi,
B10716,P.O. Box 2686-00621   ,Village Market,Nairobi,
B10767,   ,Cambridge,ON,
B09847,Building A Nairobi Business Park Ngong Road ,Nairobi,Nairobi,
B11192,"Meydan Racecourse, Al Meydan Road, Nad Al Sheba P.O. Box 9305  ",Dubai,Dubai,
B11261,   ,Abu Dhabi,AbuDahabi,
B11276,7811 Granville Ave   ,Richmond,BC,V6Y 3E3
SI_18768,Suite 3210 - 666 Burrard Street   ,Vancouver,BC,V6C 2X8
B11751,Po Box 87739   ,Riyadh,.,
B11637,Zaragoza #1000 Sur 15th Floor  ,Monterrey,MX,64000
B11702,   ,Dubai,Dubai,
B11812,PO BOX 2921 POST CODE 24243  ,Saudi Arabia,.,24243
B11605,"18F,Tower D,#6 Lane 227 Dongyu Road,Pudong Shanghai,P.R.China  ",shanghai,shan,
B11774,"23, Shehab Street   ",Mohandessin,NewCairo,
B11597,148 Kenwood Avenue   ,Toronto,ON,M6C2S3
B11811,PO BOX 397   ,Abu Dhabi,AbuDahabi,
B11848,"13th Floor, No. 2 Renmin East Road, Taiping Street Wenling, Taizhou City, Zhejiang Province  ",Wenling,zhe,
B11831,"3rd Floor, Park Place Building 2nd Parklands Avenue & Limuru Road PO Box 30270 - 00100, GPO ",Nairobi,Nairobi,100
B11813,PO BOX 4458   ,Al Khobar,.,31952
B11996,"9th Floor RSSB Tower II Building Kiyovu, Nyarugenge District P.O. Box 5516 ",Kigali,add,
B09723,City Hall 453 W 12th Ave  ,Vancouver,BC,V5Y 1V4
B13589,P.O. Box 430 Emancipation Garden Station  ,St. Thomas,stThomas,00804-0430
B13589,P.O. Box 223245   ,Christiansted,stCroix,00822-3245
B13593,Prince Sultan Bin Abdulaziz Rd   ,As Sulimaniyah,riyadh,
B11643,144 Front St. W Suite 310  ,Toronto,ON,M5J 2L7
B11749,PO Box 8592   ,Riyach,.,
B11771,"87 Tahrir St. Dokki, 12612 PO Box 678   ",Orman,NewCairo,
B10793,Keizersgracht 62/64 1015 CS Amsterdam  ,Netherlands,NON-US,
B11750,PO Box 13621   ,Riyadh,.,
B10810,P.O. Box 88271   ,Mombasa,add,8841
B11839,500 Palladium Drive Suite 2100  ,Ottawa,ON,K2V 1C2
B12004,Pedregal 24 Piso 3- Torre Virreyes  ,Molino del Rey,EM,11040
B11323,2201 Bristol Circle   ,Oakville,ON,L6H 0J8
B11341,200 King Street West Suite 1805  ,Toronto,ON,M5H3T4
B11363,   ,Nairobi,Nairobi,
B11374,"Floor 17, Uno International, No.97 Qingyang Avenue   ",Chengdu,CQ,
B11375,   ,Al-Khobar,.,
B11425,P.O. Box 81141   ,Mombasa,add,80100
B11468,   ,Jeddah,.,
B11444,   ,Al Khobar,.,
B11461,128 Wellington Street West Suite 301  ,Barrie,ON,L4N 8J6
B11462,44 Mobile Drive   ,North York,ON,M4A 2P2
B11522,Bay La Sun - 7082 Unit 2   ,King Abdullah Economic City,.,
B11523,"103-287 Lacewood Dr, Suite 135   ",Halifax,NS,83M 3Y7
B11391,   ,Nairobi,Nairobi,
B11447,No.63 Meilan District Qiongyuan Road   ,haikou,HI,
B11389,"4th Fl, 5th Avenue Ngong Rd.   ",Nairobi,Nairobi,200
B11400,"13, rue Ibnou Toufail Quartier Palmiers  ",Casablanca,add,20340
B11437,20 AISHA AL TAIMOURIA STREET GARDEN CITY  ,CAIRO,NewCairo,11519
B11463,3 Follis Avenue Unit 102  ,Toronto,ON,M6G 1S4
B11390,"AFRICA REIT HOUSE AFRICA REIT LANE, NEXT TO THE HUB P.O. BOX 15397 ",Karen,Nairobi,509
B11478,"Office No. 135-FD, Level 1, Incubator Building P.O. Box 145914  ",Masdar City,AbuDahabi,
B11399,45 St. Clair Avenue West Suite 1001  ,Toronto,ON,
B11516,Diplomatic Quarter   ,Riyadh,.,
B11525,"Emaar, The Economic City Co. Master Developer of KAEC 2338 BayLaSun Juman Street Unit No. 1 ",King Abdullah Economic City,.,23944-6992
B11528,P.O. Box 336   ,Dammam,.,31411
B11546,P.O. Box 2757   ,Riyadh,.,
B11548,P.O. Box 16558   ,Riyadh,.,11474
B12596,"11F PricewaterhouseCoopers Center Link Square2,202 Hu Bin Road  ",Shanghai,NON-US,200021
B12639,7747 Umro Adhamry Street Diplomatic Quarter Unit #2  ,Riyadh,riyadh,12512
B12650,6 El Sheikh Al Marsafi Street Zamalek  ,Cairo,NewCairo,
B12653,"Nile City Towers, South Tower, 9th Floor – 2005 A Corniche El Nil Cairo  ",Cairo,NewCairo,11221
B12693,"Al Wateen Center, Al Rawdah Street Ground Floor 2274  ",Jeddah,jedd,21451
B12695,King Sultan Bin Abdulaziz Street Al Awali  ,Riyadh,riyadh,12273
B12711,"DIFC Gate Village 6, Level 3   ",Dubai,Dubai,
B12713,"Khalifa Industrial Zone Al Samha Abu Dhabi, UAE ",Abu Dhabi,AbuDahabi,54477
B12718,"Marina Ring Road, Marina Mall, Ground Floor   ",Abu Dhabi,AbuDahabi,
B12597,   ,shenzhen,NON-US,
B12681,Prince Mohammed Bin Abdulaziz St Al Andalus  ,Jeddah,jedd,23326
B12691,"5th Floor, MU04 Tower ITCC Complex, AlRaidah Digital City Al Nakhil District 3807 ",Riyadh,riyadh,12382 6726
B12796,"Brookfield Place 181 Bay Street, Suite 700  ",Toronto,ON,M5J 2T3
B11903,"Dominion Public Building 1713 Bedford Row, 2nd Floor  ",Halifax,NS,B3J 1T3
B11999,Laiboni Centre Lenana Rd.  ,Kilimani,Nairobi,
B12254,2133 Hospital Street   ,Christiansted,stCroix,820
B12394,"Via Caduti Del Lavoro, 13   ",Orzinuovi,add,25034
B13410,100 East Main Ave LTI Binan  ,Laguna,add,4024
B13394,Royal Bank Plaza 200 Bay Street PO Box 1 Stn Royal Bank ,Toronto,ON,M5J2J5
